[
  {
    "addr:postcode" : "1000",
    "addr:street" : "Самоилова",
    "email" : "msu-info@msuskopje.org.mk",
    "name" : "Музеј на современата уметност",
    "opening_hours" : "Tu-Sa 10:00-15:00; Su 09:00-13:00",
    "phone" : "+389 2 3117734"
  }
,	{
  "lat" : "43.4296697",
  "lon" : "28.3377475",
  "name" : "Христо Градечлиев"
}
,	{
  "addr:postcode" : "1000",
  "email" : "contact@nationalgallery.mk",
  "name" : "Национална галерија на Македонија „Чифте-амам“",
  "opening_hours" : "Tu-Su 10:00-18:00",
  "phone" : "+389 2 3227986"
}
,	{
  "lat" : "42.0009497",
  "lon" : "21.4381580",
  "name" : "Gallery 7",
  "opening_hours" : "Mo-Su 09:00-21:00"
}
,	{
  "addr:postcode" : "1000",
  "email" : "contact@nationalgallery.mk",
  "name" : "Национална галерија „Даут-пашин амам“",
  "opening_hours" : "Tu-Su 10:00-18:00",
  "phone" : "+389 2 3133102"
}
,	{
  "lat" : "41.9989569",
  "lon" : "21.3865879",
  "addr:housenumber" : "94",
  "addr:postcode" : "1000",
  "addr:street" : "Војвода Васил Чакаларов",
  "email" : "galerija.ra@gmail.com",
  "name" : "Galerija RA",
  "opening_hours" : "Mo-Sa 10:00-20:00",
  "phone" : "+389075435402"
}
,	{
  "lat" : "41.9941112",
  "lon" : "21.4340211",
  "name" : "Градот убав"
}
]